{"type": "FeatureCollection", "features": [ {"type": "Feature", "properties": {"norad_id": 28649, "name": "IRS-P5 (CARTOSAT-1)", "group": "resource", "lat": -36.40273069679601, "lon": 31.85421073396541, "alt_km": 602.9922013180376, "timestamp": "2025-12-26T10:30:49.915816+00:00", "meta": {"OBJECT_NAME": "IRS-P5 (CARTOSAT-1)", "OBJECT_ID": "2005-017A", "EPOCH": "2025-12-26T01:00:39.645792", "MEAN_MOTION": 14.90447527, "ECCENTRICITY": 4.71e-05, "INCLINATION": 97.5483, "RA_OF_ASC_NODE": 25.865, "ARG_OF_PERICENTER": 68.6931, "MEAN_ANOMALY": 291.4338, "EPHEMERIS_TYPE": 0, "CLASSIFICATION_TYPE": "U", "NORAD_CAT_ID": 28649, "ELEMENT_SET_NO": 999, "REV_AT_EPOCH": 11802, "BSTAR": 0.00016417, "MEAN_MOTION_DOT": 1.548e-05, "MEAN_MOTION_DDOT": 0}, "tle": {"line1": "1 28649U 05017A   25360.04212553  .00001548  00000+0  16417-3 0  9999", "line2": "2 28649  97.5483  25.8650 0000471  68.6931 291.4338 14.90447527118023"}}, "geometry": {"type": "Point", "coordinates": [31.85421073396541, -36.40273069679601]}}, {"type": "Feature", "properties": {"norad_id": 28893, "name": "SINAH 1", "group": "resource", "lat": 80.52193878216745, "lon": 9.518907338007775, "alt_km": 661.8450840605074, "timestamp": "2025-12-26T10:30:49.915827+00:00", "meta": {"OBJECT_NAME": "SINAH 1", "OBJECT_ID": "2005-043D", "EPOCH": "2025-12-26T03:31:21.220896", "MEAN_MOTION": 14.63976138, "ECCENTRICITY": 0.0015732, "INCLINATION": 98.261, "RA_OF_ASC_NODE": 128.7405, "ARG_OF_PERICENTER": 97.9355, "MEAN_ANOMALY": 262.3633, "EPHEMERIS_TYPE": 0, "CLASSIFICATION_TYPE": "U", "NORAD_CAT_ID": 28893, "ELEMENT_SET_NO": 999, "REV_AT_EPOCH": 7520, "BSTAR": 9.5188e-05, "MEAN_MOTION_DOT": 4.5e-06, "MEAN_MOTION_DDOT": 0}, "tle": {"line1": "1 28893U 05043D   25360.14677339  .00000450  00000+0  95188-4 0  9991", "line2": "2 28893  98.2610 128.7405 0015732  97.9355 262.3633 14.63976138 75208"}}, "geometry": {"type": "Point", "coordinates": [9.518907338007775, 80.52193878216745]}}, {"type": "Feature", "properties": {"norad_id": 29079, "name": "EROS B", "group": "resource", "lat": -53.21703267984403, "lon": 127.64346440312434, "alt_km": 354.59122404699883, "timestamp": "2025-12-26T10:30:49.915838+00:00", "meta": {"OBJECT_NAME": "EROS B", "OBJECT_ID": "2006-014A", "EPOCH": "2025-12-26T04:38:04.460352", "MEAN_MOTION": 15.72780029, "ECCENTRICITY": 0.0004634, "INCLINATION": 97.3451, "RA_OF_ASC_NODE": 117.4496, "ARG_OF_PERICENTER": 312.044, "MEAN_ANOMALY": 48.0429, "EPHEMERIS_TYPE": 0, "CLASSIFICATION_TYPE": "U", "NORAD_CAT_ID": 29079, "ELEMENT_SET_NO": 999, "REV_AT_EPOCH": 9291, "BSTAR": 0.0015606, "MEAN_MOTION_DOT": 0.00215341, "MEAN_MOTION_DDOT": 0}, "tle": {"line1": "1 29079U 06014A   25360.19310718  .00215341  00000+0  15606-2 0  9999", "line2": "2 29079  97.3451 117.4496 0004634 312.0440  48.0429 15.72780029 92910"}}, "geometry": {"type": "Point", "coordinates": [127.64346440312434, -53.21703267984403]}}, {"type": "Feature", "properties": {"norad_id": 29228, "name": "RESURS-DK 1", "group": "resource", "lat": -66.77753301929273, "lon": -55.14049751900131, "alt_km": 531.3284687612149, "timestamp": "2025-12-26T10:30:49.915849+00:00", "meta": {"OBJECT_NAME": "RESURS-DK 1", "OBJECT_ID": "2006-021A", "EPOCH": "2025-12-25T12:44:18.731040", "MEAN_MOTION": 15.12230969, "ECCENTRICITY": 0.0006922, "INCLINATION": 69.9336, "RA_OF_ASC_NODE": 68.7803, "ARG_OF_PERICENTER": 247.3291, "MEAN_ANOMALY": 112.7143, "EPHEMERIS_TYPE": 0, "CLASSIFICATION_TYPE": "U", "NORAD_CAT_ID": 29228, "ELEMENT_SET_NO": 999, "REV_AT_EPOCH": 7631, "BSTAR": 0.00018237, "MEAN_MOTION_DOT": 3.053e-05, "MEAN_MOTION_DDOT": 0}, "tle": {"line1": "1 29228U 06021A   25359.53077235  .00003053  00000+0  18237-3 0  9992", "line2": "2 29228  69.9336  68.7803 0006922 247.3291 112.7143 15.12230969 76314"}}, "geometry": {"type": "Point", "coordinates": [-55.14049751900131, -66.77753301929273]}}, {"type": "Feature", "properties": {"norad_id": 29268, "name": "ARIRANG-2 (KOMPSAT-2)", "group": "resource", "lat": 25.4865588864413, "lon": -175.51593333069818, "alt_km": 683.0208535051815, "timestamp": "2025-12-26T10:30:49.915860+00:00", "meta": {"OBJECT_NAME": "ARIRANG-2 (KOMPSAT-2)", "OBJECT_ID": "2006-031A", "EPOCH": "2025-12-26T04:24:16.356096", "MEAN_MOTION": 14.6450491, "ECCENTRICITY": 0.001312, "INCLINATION": 97.8259, "RA_OF_ASC_NODE": 188.0011, "ARG_OF_PERICENTER": 262.8073, "MEAN_ANOMALY": 221.6527, "EPHEMERIS_TYPE": 0, "CLASSIFICATION_TYPE": "U", "NORAD_CAT_ID": 29268, "ELEMENT_SET_NO": 999, "REV_AT_EPOCH": 3615, "BSTAR": 6.6679e-05, "MEAN_MOTION_DOT": 3.09e-06, "MEAN_MOTION_DDOT": 0}, "tle": {"line1": "1 29268U 06031A   25360.18352264  .00000309  00000+0  66679-4 0  9993", "line2": "2 29268  97.8259 188.0011 0013120 262.8073 221.6527 14.64504910 36157"}}, "geometry": {"type": "Point", "coordinates": [-175.51593333069818, 25.4865588864413]}}, {"type": "Feature", "properties": {"norad_id": 29709, "name": "LAPAN-TUBSAT", "group": "resource", "lat": -74.25427072780552, "lon": 21.32764011981494, "alt_km": 621.8067089954702, "timestamp": "2025-12-26T10:30:49.915870+00:00", "meta": {"OBJECT_NAME": "LAPAN-TUBSAT", "OBJECT_ID": "2007-001A", "EPOCH": "2025-12-26T04:23:30.422400", "MEAN_MOTION": 14.85689254, "ECCENTRICITY": 0.0013123, "INCLINATION": 98.1266, "RA_OF_ASC_NODE": 350.6164, "ARG_OF_PERICENTER": 34.0239, "MEAN_ANOMALY": 326.1814, "EPHEMERIS_TYPE": 0, "CLASSIFICATION_TYPE": "U", "NORAD_CAT_ID": 29709, "ELEMENT_SET_NO": 999, "REV_AT_EPOCH": 2546, "BSTAR": 7.4528e-05, "MEAN_MOTION_DOT": 5.9e-06, "MEAN_MOTION_DDOT": 0}, "tle": {"line1": "1 29709U 07001A   25360.18299100  .00000590  00000+0  74528-4 0  9994", "line2": "2 29709  98.1266 350.6164 0013123  34.0239 326.1814 14.85689254 25461"}}, "geometry": {"type": "Point", "coordinates": [21.32764011981494, -74.25427072780552]}}, {"type": "Feature", "properties": {"norad_id": 31113, "name": "HAIYANG-1B", "group": "resource", "lat": -5.333369481549065, "lon": -15.06479631026142, "alt_km": 782.4105423328774, "timestamp": "2025-12-26T10:30:49.915881+00:00", "meta": {"OBJECT_NAME": "HAIYANG-1B", "OBJECT_ID": "2007-010A", "EPOCH": "2025-12-25T22:47:30.795072", "MEAN_MOTION": 14.30969243, "ECCENTRICITY": 0.0013551, "INCLINATION": 98.3331, "RA_OF_ASC_NODE": 343.6829, "ARG_OF_PERICENTER": 359.9847, "MEAN_ANOMALY": 0.1334, "EPHEMERIS_TYPE": 0, "CLASSIFICATION_TYPE": "U", "NORAD_CAT_ID": 31113, "ELEMENT_SET_NO": 999, "REV_AT_EPOCH": 97585, "BSTAR": 6.0325e-05, "MEAN_MOTION_DOT": 1.17e-06, "MEAN_MOTION_DDOT": 0}, "tle": {"line1": "1 31113U 07010A   25359.94966198  .00000117  00000+0  60325-4 0  9991", "line2": "2 31113  98.3331 343.6829 0013551 359.9847   0.1334 14.30969243975859"}}, "geometry": {"type": "Point", "coordinates": [-15.06479631026142, -5.333369481549065]}}, {"type": "Feature", "properties": {"norad_id": 31598, "name": "COSMO-SKYMED 1", "group": "resource", "lat": 18.28883421422154, "lon": -176.6971134689689, "alt_km": 579.6412206135692, "timestamp": "2025-12-26T10:30:49.915891+00:00", "meta": {"OBJECT_NAME": "COSMO-SKYMED 1", "OBJECT_ID": "2007-023A", "EPOCH": "2025-12-26T04:00:35.592768", "MEAN_MOTION": 14.95862832, "ECCENTRICITY": 0.0001172, "INCLINATION": 97.8839, "RA_OF_ASC_NODE": 185.6551, "ARG_OF_PERICENTER": 77.3468, "MEAN_ANOMALY": 282.7883, "EPHEMERIS_TYPE": 0, "CLASSIFICATION_TYPE": "U", "NORAD_CAT_ID": 31598, "ELEMENT_SET_NO": 999, "REV_AT_EPOCH": 391, "BSTAR": 0.00028974, "MEAN_MOTION_DOT": 3.179e-05, "MEAN_MOTION_DDOT": 0}, "tle": {"line1": "1 31598U 07023A   25360.16707862  .00003179  00000+0  28974-3 0  9993", "line2": "2 31598  97.8839 185.6551 0001172  77.3468 282.7883 14.95862832  3918"}}, "geometry": {"type": "Point", "coordinates": [-176.6971134689689, 18.28883421422154]}}, {"type": "Feature", "properties": {"norad_id": 31698, "name": "TERRASAR-X", "group": "resource", "lat": 74.98459973929688, "lon": -145.20618359913578, "alt_km": 500.1222571607186, "timestamp": "2025-12-26T10:30:49.915902+00:00", "meta": {"OBJECT_NAME": "TERRASAR-X", "OBJECT_ID": "2007-026A", "EPOCH": "2025-12-25T13:30:40.378176", "MEAN_MOTION": 15.19155603, "ECCENTRICITY": 0.0001851, "INCLINATION": 97.4447, "RA_OF_ASC_NODE": 4.756, "ARG_OF_PERICENTER": 79.9289, "MEAN_ANOMALY": 280.2154, "EPHEMERIS_TYPE": 0, "CLASSIFICATION_TYPE": "U", "NORAD_CAT_ID": 31698, "ELEMENT_SET_NO": 999, "REV_AT_EPOCH": 2686, "BSTAR": 7.0738e-05, "MEAN_MOTION_DOT": 1.419e-05, "MEAN_MOTION_DDOT": 0}, "tle": {"line1": "1 31698U 07026A   25359.56296734  .00001419  00000+0  70738-4 0  9991", "line2": "2 31698  97.4447   4.7560 0001851  79.9289 280.2154 15.19155603 26865"}}, "geometry": {"type": "Point", "coordinates": [-145.20618359913578, 74.98459973929688]}}, {"type": "Feature", "properties": {"norad_id": 32060, "name": "WORLDVIEW-1 (WV-1)", "group": "resource", "lat": -0.1768010147498667, "lon": 117.74019390029666, "alt_km": 494.87865534218236, "timestamp": "2025-12-26T10:30:49.915913+00:00", "meta": {"OBJECT_NAME": "WORLDVIEW-1 (WV-1)", "OBJECT_ID": "2007-041A", "EPOCH": "2025-12-25T21:54:28.538784", "MEAN_MOTION": 15.23970328, "ECCENTRICITY": 0.000309, "INCLINATION": 97.3821, "RA_OF_ASC_NODE": 117.2002, "ARG_OF_PERICENTER": 352.1251, "MEAN_ANOMALY": 7.9937, "EPHEMERIS_TYPE": 0, "CLASSIFICATION_TYPE": "U", "NORAD_CAT_ID": 32060, "ELEMENT_SET_NO": 999, "REV_AT_EPOCH": 1648, "BSTAR": 0.00033312, "MEAN_MOTION_DOT": 7.994e-05, "MEAN_MOTION_DDOT": 0}, "tle": {"line1": "1 32060U 07041A   25359.91283031  .00007994  00000+0  33312-3 0  9997", "line2": "2 32060  97.3821 117.2002 0003090 352.1251   7.9937 15.23970328 16481"}}, "geometry": {"type": "Point", "coordinates": [117.74019390029666, -0.1768010147498667]}}]}